ONEWEB-0060             
1 45455U 20020AH  23059.02521963  .00000199  00000+0  52464-3 0  9996
2 45455  87.8799 260.4864 0001544  89.8294 270.3011 13.11412865144608
ONEWEB-0060             
1 45455U 20020AH  23059.55929916  .00000363  00000+0  98979-3 0  9998
2 45455  87.8799 260.3801 0001523  88.7195 271.4107 13.11413065144660
ONEWEB-0060             
1 45455U 20020AH  23059.78818981  .00000396  00000+0  10817-2 0  9992
2 45455  87.8799 260.3344 0001524  88.9856 271.1446 13.11413979144699
ONEWEB-0060             
1 45455U 20020AH  23060.09337806  .00000546  00000+0  15058-2 0  9999
2 45455  87.8799 260.2735 0001530  88.7428 271.3875 13.11413734144745
ONEWEB-0060             
1 45455U 20020AH  23060.78005072  .00000535  00000+0  14748-2 0  9995
2 45455  87.8800 260.1363 0001540  89.2882 270.8422 13.11415206144822
ONEWEB-0060             
1 45455U 20020AH  23061.77191091  .00000563  00000+0  15527-2 0  9999
2 45455  87.8802 259.9383 0001530  90.0290 270.1014 13.11415764144957
ONEWEB-0060             
1 45455U 20020AH  23061.77191091  .00000563  00000+0  15527-2 0  9999
2 45455  87.8802 259.9383 0001530  90.0290 270.1014 13.11415764144968
ONEWEB-0060             
1 45455U 20020AH  23062.45858208  .00000601  00000+0  16590-2 0  9999
2 45455  87.8804 259.8012 0001514  90.0416 270.0885 13.11416574145045
ONEWEB-0060             
1 45455U 20020AH  23062.84006582  .00000592  00000+0  16333-2 0  9996
2 45455  87.8805 259.7251 0001521  90.3465 269.7837 13.11417082145097
